RESOURCESAT-2A          
1 41877U 16074A   22242.35471348 -.00000976  00000+0 -42501-3 0  9990
2 41877  98.7142 316.6928 0002336 106.8885 253.2578 14.21616984297265
CARTOSAT-2D             
1 41948U 17008A   22242.39329705  .00001709  00000+0  84337-4 0  9997
2 41948  97.4598 301.1668 0007810  69.9371 290.2716 15.19235642307023
SENTINEL-2B             
1 42063U 17013A   22242.21451263  .00000040  00000+0  31809-4 0  9991
2 42063  98.5668 315.9145 0001174  90.1880 269.9455 14.30814714286319
ZHUHAI-1 02 (CAS-4B)    
1 42759U 17034B   22242.50245564  .00001494  00000+0  97493-4 0  9998
2 42759  43.0182 284.4076 0009238  27.0124 112.1451 15.12323481287569
NUSAT-3 (MILANESAT)     
1 42760U 17034C   22242.47783525  .00001517  00000+0  96767-4 0  9999
2 42760  43.0154 278.9011 0008763  51.4632  85.1705 15.13116366287636
ZHUHAI-1 01 (CAS-4A)    
1 42761U 17034D   22242.53588780  .00001314  00000+0  87099-4 0  9996
2 42761  43.0181 282.9570 0009592  28.9283 120.6428 15.12406593287577
CARTOSAT-2E             
1 42767U 17036C   22242.43418963  .00001760  00000+0  86727-4 0  9990
2 42767  97.4486 301.9518 0008744 116.7139   6.6677 15.19242313287598
FORMOSAT-5              
1 42920U 17049A   22242.50089023  .00000028  00000+0  18230-4 0  9994
2 42920  98.2369 318.5427 0010925  31.3228 328.8614 14.50867770265608
SENTINEL-5P             
1 42969U 17064A   22242.41079364  .00000001  00000+0  21405-4 0  9990
2 42969  98.7339 181.1532 0001105  79.4089 280.7211 14.19547378252814
SKYSAT-C11              
1 42987U 17068A   22242.32288181  .00006051  00000+0  16298-3 0  9997
2 42987  97.2984   0.7625 0002899 127.7712 232.3796 15.38205837269748
SKYSAT-C10              
1 42988U 17068B   22242.55028732  .00006697  00000+0  17988-3 0  9990
2 42988  97.3032   1.2786 0003048  98.3984 261.7607 15.38249878269806
SKYSAT-C9               
1 42989U 17068C   22242.27919369  .00005728  00000+0  15459-3 0  9990
2 42989  97.2969   0.0988 0001840  98.0291 262.1163 15.38171222269957
SKYSAT-C8               
1 42990U 17068D   22242.33594357  .00006019  00000+0  16181-3 0  9992
2 42990  97.3042   1.4906 0005096 105.7044 254.4764 15.38259161269798
SKYSAT-C7               
1 42991U 17068E   22242.31424893  .00006072  00000+0  16345-3 0  9999
2 42991  97.3048   1.5467 0003557 125.4970 234.6608 15.38220977269795
SKYSAT-C6               
1 42992U 17068F   22242.56483386  .00006655  00000+0  17893-3 0  9995
2 42992  97.3069   2.1987 0002973 117.1712 242.9837 15.38222507269849
CARTOSAT-2F             
1 43111U 18004A   22242.53019709  .00007318  00000+0  35018-3 0  9997
2 43111  97.4423 301.9012 0004999 127.5232 344.4012 15.19258237256790
NUSAT-4 (ADA)           
1 43195U 18015D   22242.48685450  .00006628  00000+0  21769-3 0  9998
2 43195  97.5435  24.7473 0015268 142.1177 291.3423 15.31808754254567
NUSAT-5 (MARYAM)        
1 43204U 18015K   22242.46303510  .00006857  00000+0  22232-3 0  9991
2 43204  97.5444  25.3526 0014652 143.2540 288.6531 15.32221672254193
GAOFEN 1-02             
1 43259U 18031A   22242.58796078  .00000224  00000+0  39279-4 0  9999
2 43259  97.8966 317.5659 0004417 116.5644 243.6027 14.76503505238080
GAOFEN 1-03             
1 43260U 18031B   22242.56586519  .00000215  00000+0  37997-4 0  9991
2 43260  97.8963 317.5089 0005542 185.0685 175.0472 14.76531419238078
GAOFEN 1-04             
1 43262U 18031D   22242.60888260  .00000240  00000+0  41536-4 0  9998
2 43262  97.8968 317.5924 0005443 142.0194 218.1401 14.76551075238072
SENTINEL-3B             
1 43437U 18039A   22242.44116938  .00000035  00000+0  32433-4 0  9996
2 43437  98.6235 308.6994 0001335  77.9855 282.1475 14.26737428226382
GAOFEN 5-01             
1 43461U 18043A   22242.40282639  .00000132  00000+0  38741-4 0  9992
2 43461  98.2726 182.5212 0003136  73.3294 286.8249 14.58017471229433
GAOFEN 6                
1 43484U 18048A   22242.57403403  .00000179  00000+0  32886-4 0  9999
2 43484  97.9271 321.5435 0008176 334.8220  25.2592 14.76512012228777
GAOFEN 11-1             
1 43585U 18063A   22242.57393226  .00002353  00000+0  10128-3 0  9999
2 43585  97.3158 316.8634 0013018 272.5457 200.8071 15.23514994227671
AEOLUS                  
1 43600U 18066A   22242.47032394  .00074301  00000+0  28994-3 0  9997
2 43600  96.7014 247.0815 0004775  85.4549 274.7270 15.86846150232861
ICESAT-2                
1 43613U 18070A   22242.50929379  .00001421  00000+0  51408-4 0  9998
2 43613  92.0007 278.1602 0006351  75.6299 284.5655 15.28288534220685
HYSIS                   
1 43719U 18096A   22242.53392943  .00000297  00000+0  47474-4 0  9995
2 43719  97.9536 307.7589 0001370 358.5566   1.5646 14.78677654202509
KAZSTSAT                
1 43783U 18099AB  22242.44387487  .00000463  00000+0  48527-4 0  9991
2 43783  97.6243 305.6629 0008543  32.3751 327.7992 14.94053761203857
SAUDISAT 5A             
1 43831U 18102A   22242.54514323  .00001211  00000+0  79564-4 0  9999
2 43831  97.4931 314.0360 0012484 286.1699 185.6179 15.09414200205359
SAUDISAT 5B             
1 43833U 18102C   22242.54676519  .00001224  00000+0  79424-4 0  9996
2 43833  97.4956 315.0424 0013434 292.3228 179.6134 15.09861221205402
GAOFEN 10R              
1 44622U 19066A   22242.61407976  .00000364  00000+0  53856-4 0  9995
2 44622  97.8942 180.7557 0002767 111.1711 248.9798 14.80881328156986
CARTOSAT-3              
1 44804U 19081A   22242.47728322  .00001350  00000+0  67006-4 0  9997
2 44804  97.3918 302.5222 0011654 322.6949 164.9700 15.19337897152870
GAOFEN 12-1             
1 44819U 19082A   22242.55608656  .00000111  00000+0  21319-4 0  9991
2 44819  97.8599 261.4156 0001397  76.7217 283.4165 14.80265876148908
CSG-1                   
1 44873U 19092A   22242.58747988 -.00000171  00000+0 -14964-4 0  9993
2 44873  97.8890  65.1851 0001271  71.2513 288.8861 14.82149436146087
NUSAT-7 (SOPHIE)        
1 45017U 20003B   22242.47014686  .00006725  00000+0  19220-3 0  9996
2 45017  97.2100 302.7810 0013416  94.3036  30.3016 15.36225443146581
NUSAT-8 (MARIE)         
1 45018U 20003C   22242.46082829  .00008399  00000+0  21685-3 0  9997
2 45018  97.2234 304.9217 0011982  95.3534  23.6817 15.39316380146640
NUSAT-6 (HYPATIA)       
1 46272U 20061A   22242.62858731  .00003387  00000+0  13567-3 0  9997
2 46272  97.3254 312.0408 0007412 158.2153 201.9403 15.25694986110534
NEMO-HD                 
1 46277U 20061F   22242.50976806  .00001283  00000+0  66695-4 0  9997
2 46277  97.3871 311.3847 0000217  38.0906  86.8213 15.17825632110095
NUSAT-12 (DOROTHY)      
1 46827U 20079A   22242.51734471  .00008346  00000+0  21748-3 0  9994
2 46827  97.1934 311.1638 0008411  44.6391  79.3370 15.39071349101492
NUSAT-9 (ALICE)         
1 46828U 20079B   22242.55780353  .00008726  00000+0  22396-3 0  9991
2 46828  97.1814 310.7834 0004415  86.4801  20.9068 15.39549149101543
NUSAT-11 (CORA)         
1 46829U 20079C   22242.55705807  .00008573  00000+0  21925-3 0  9990
2 46829  97.1864 311.1354 0006982  58.9864  48.3573 15.39646600101539
NUSAT-15 (KATHERINE)    
1 46830U 20079D   22242.55091196  .00008477  00000+0  21773-3 0  9995
2 46830  97.2008 312.4182 0003922  40.8913  72.2493 15.39536609101546
NUSAT-14 (HEDY)         
1 46831U 20079E   22242.48949880  .00009289  00000+0  23130-3 0  9991
2 46831  97.1974 312.2163 0007905  44.6425  80.4818 15.40432914101548
NUSAT-10 (CAROLINE)     
1 46832U 20079F   22242.50754841  .00007897  00000+0  20449-3 0  9999
2 46832  97.1973 311.8962 0008061  55.2256 359.7907 15.39286376101520
NUSAT-13 (EMMY)         
1 46833U 20079G   22242.59001191  .00007761  00000+0  20240-3 0  9991
2 46833  97.1973 311.9478 0008237  56.3198  79.6650 15.39070092101536
NUSAT-17 (MARY)         
1 46835U 20079J   22242.49767465  .00007898  00000+0  20730-3 0  9990
2 46835  97.1968 311.6000 0008617  66.3925  48.1046 15.38866469101508
NUSAT-18 (VERA)         
1 46836U 20079K   22242.59196532  .00008370  00000+0  21576-3 0  9998
2 46836  97.1977 312.1460 0009568  71.1454  64.9069 15.39390753101546
NUSAT-16 (LISE)         
1 46840U 20079P   22242.55459976  .00008731  00000+0  22513-3 0  9996
2 46840  97.2025 312.2349 0006469  72.1068  46.9441 15.39396820101536
SENTINEL-6              
1 46984U 20086A   22242.37881663 -.00000061  00000+0  00000+0 0  9997
2 46984  66.0431 135.4803 0007810 265.1947  94.8174 12.80930219 82836
GAOFEN 12-2             
1 48079U 21026A   22242.45114801 -.00000014  00000+0  49303-5 0  9994
2 48079  97.8979 231.9367 0001556  90.2650 269.8764 14.80200129 76573
PLEIADES NEO 3          
1 48268U 21034A   22242.54146660 -.00000291  00000+0 -30325-4 0  9992
2 48268  97.8928 316.2049 0001230  86.1241 274.0137 14.81669527 72323
NUSAT-19 (ROSALIND)     
1 48905U 21059AC  22242.55196852  .00003400  00000+0  16090-3 0  9991
2 48905  97.5172  11.9531 0010036 169.3772 255.8228 15.20003650 65324
NUSAT-22 (SOFYA)        
1 48919U 21059AS  22242.56524484  .00006805  00000+0  21809-3 0  9999
2 48919  97.3642  14.2883 0014905 129.7834 293.7752 15.32580206 65911
NUSAT-21 (ELISA)        
1 48920U 21059AT  22242.43485488  .00010451  00000+0  29988-3 0  9995
2 48920  97.3596  13.7108 0013566 138.1956 292.8202 15.35963723 65907
NUSAT-20 (GRACE)        
1 48921U 21059AU  22242.44292535  .00007554  00000+0  22749-3 0  9994
2 48921  97.3713  14.1856 0016364 157.9146 273.5021 15.34502205 65899
PLEIADES NEO 4          
1 49070U 21073E   22242.57522279 -.00000241  00000+0 -23993-4 0  9992
2 49070  97.8963 316.2354 0001402  80.5926 279.5469 14.81669597 56048
LANDSAT 9               
1 49260U 21088A   22242.48468486  .00000161  00000+0  45733-4 0  9993
2 49260  98.2226 311.7823 0001561  88.6326 271.5051 14.57111896 49066
CSG-2                   
1 51444U 22008A   22242.55372542 -.00001132  00000+0 -13572-3 0  9994
2 51444  97.8894  65.1515 0001336  86.1487 273.9953 14.82141965 31198
INS-2TD                 
1 51658U 22013C   22242.45342480  .00003499  00000+0  18985-3 0  9993
2 51658  97.5565 250.1484 0008873 304.6462  55.3933 15.15194037 29879
